STARLINK-1297           
1 45395U 20019AM  25212.85452775  .00001780  00000+0  13835-3 0  9991
2 45395  53.0540  57.9854 0001345  87.0079 273.1064 15.06397584296487
STARLINK-1307           
1 45397U 20019AP  25212.78080331  .00000426  00000+0  47509-4 0  9992
2 45397  53.0538  58.3118 0001645 104.7133 255.4038 15.06399022296534
STARLINK-1312           
1 45398U 20019AQ  25213.58335648  .00132196  00000+0  19760-2 0  9992
2 45398  53.0554  46.3957 0003146 212.0473 150.0899 15.54092242296700
STARLINK-1255           
1 45399U 20019AR  25212.81490026 -.00000133  00000+0  99497-5 0  9994
2 45399  53.0560  48.1562 0001537  98.1526 261.9637 15.06402389296665
STARLINK-1259           
1 45403U 20019AV  25213.25002315  .00171418  00000+0  17393-2 0  9995
2 45403  53.0560  34.1829 0004721 240.2987 199.0558 15.64162005296891
STARLINK-1260           
1 45404U 20019AW  25212.84808193 -.00001144  00000+0 -57914-4 0  9993
2 45404  53.0562  48.0209 0001347  98.8125 261.3017 15.06385960296573
STARLINK-1263           
1 45405U 20019AX  25212.83333333 -.00000106  00000+0  11791-4 0  9991
2 45405  53.0559  48.0780 0001328  85.4614 274.6527 15.06387987296572
STARLINK-1265           
1 45406U 20019AY  25213.57051355 -.00000115  00000+0  11187-4 0  9994
2 45406  53.0571  44.7748 0001467 102.9849 257.1304 15.06398779296685
STARLINK-1278           
1 45408U 20019BA  25212.93377935  .00000712  00000+0  66707-4 0  9990
2 45408  53.0550  77.6323 0001337  86.0593 274.0548 15.06392785296175
STARLINK-1296           
1 45412U 20019BE  25212.91073261 -.00001656  00000+0 -92331-4 0  9990
2 45412  53.0553  47.7348 0001322  93.1729 266.9411 15.06392804296588
STARLINK-1298           
1 45413U 20019BF  25213.58335648  .01117056  00000+0  33719-1 0  9998
2 45413  53.0536  43.7298 0001296  68.7929 327.6250 15.31283558296792
STARLINK-1309           
1 45414U 20019BG  25213.52259927  .00000542  00000+0  55305-4 0  9996
2 45414  53.0559  44.9869 0001404  88.1102 272.0048 15.06400850296689
STARLINK-1316           
1 45415U 20019BH  25212.81858891  .00001161  00000+0  96832-4 0  9991
2 45415  53.0545  48.1462 0001390  82.3478 277.7669 15.06390956296592
STARLINK-1318           
1 45416U 20019BJ  25213.58335648  .00098549  00000+0  31587-2 0  9997
2 45416  53.0539  41.6513 0001516  81.5848  64.5205 15.31565876296730
STARLINK-1286           
1 45417U 20019BK  25212.85636791 -.00000509  00000+0 -15232-4 0  9992
2 45417  53.0554  77.9804 0001830 122.8225 237.2940 15.06402974296433
STARLINK-1308           
1 45419U 20019BM  25212.85267795 -.00000192  00000+0  59817-5 0  9993
2 45419  53.0554  77.9931 0001281 100.0531 260.0602 15.06398008296187
STARLINK-1329           
1 45531U 20025A   25212.68865895 -.00001136  00000+0 -57381-4 0  9994
2 45531  53.0556  18.7288 0001330  90.5011 269.6130 15.06398497291787
