[{"OBJECT_NAME":"STARLINK-1297","OBJECT_ID":"2020-019AM","EPOCH":"2025-07-31T20:30:31.197600","MEAN_MOTION":15.06397584,"ECCENTRICITY":0.0001345,"INCLINATION":53.054,"RA_OF_ASC_NODE":57.9854,"ARG_OF_PERICENTER":87.0079,"MEAN_ANOMALY":273.1064,"EPHEMERIS_TYPE":0,"CLASSIFICATION_TYPE":"U","NORAD_CAT_ID":45395,"ELEMENT_SET_NO":999,"REV_AT_EPOCH":29648,"BSTAR":0.00013835,"MEAN_MOTION_DOT":1.78e-5,"MEAN_MOTION_DDOT":0},{"OBJECT_NAME":"STARLINK-1307","OBJECT_ID":"2020-019AP","EPOCH":"2025-07-31T18:44:21.405984","MEAN_MOTION":15.06399022,"ECCENTRICITY":0.0001645,"INCLINATION":53.0538,"RA_OF_ASC_NODE":58.3118,"ARG_OF_PERICENTER":104.7133,"MEAN_ANOMALY":255.4038,"EPHEMERIS_TYPE":0,"CLASSIFICATION_TYPE":"U","NORAD_CAT_ID":45397,"ELEMENT_SET_NO":999,"REV_AT_EPOCH":29653,"BSTAR":4.7509e-5,"MEAN_MOTION_DOT":4.26e-6,"MEAN_MOTION_DDOT":0},{"OBJECT_NAME":"STARLINK-1312","OBJECT_ID":"2020-019AQ","EPOCH":"2025-08-01T14:00:01.999872","MEAN_MOTION":15.54092242,"ECCENTRICITY":0.0003146,"INCLINATION":53.0554,"RA_OF_ASC_NODE":46.3957,"ARG_OF_PERICENTER":212.0473,"MEAN_ANOMALY":150.0899,"EPHEMERIS_TYPE":0,"CLASSIFICATION_TYPE":"U","NORAD_CAT_ID":45398,"ELEMENT_SET_NO":999,"REV_AT_EPOCH":29670,"BSTAR":0.001976,"MEAN_MOTION_DOT":0.00132196,"MEAN_MOTION_DDOT":0},{"OBJECT_NAME":"STARLINK-1255","OBJECT_ID":"2020-019AR","EPOCH":"2025-07-31T19:33:27.382464","MEAN_MOTION":15.06402389,"ECCENTRICITY":0.0001537,"INCLINATION":53.056,"RA_OF_ASC_NODE":48.1562,"ARG_OF_PERICENTER":98.1526,"MEAN_ANOMALY":261.9637,"EPHEMERIS_TYPE":0,"CLASSIFICATION_TYPE":"U","NORAD_CAT_ID":45399,"ELEMENT_SET_NO":999,"REV_AT_EPOCH":29666,"BSTAR":9.9497e-6,"MEAN_MOTION_DOT":-1.33e-6,"MEAN_MOTION_DDOT":0},{"OBJECT_NAME":"STARLINK-1259","OBJECT_ID":"2020-019AV","EPOCH":"2025-08-01T06:00:02.000160","MEAN_MOTION":15.64162005,"ECCENTRICITY":0.0004721,"INCLINATION":53.056,"RA_OF_ASC_NODE":34.1829,"ARG_OF_PERICENTER":240.2987,"MEAN_ANOMALY":199.0558,"EPHEMERIS_TYPE":0,"CLASSIFICATION_TYPE":"U","NORAD_CAT_ID":45403,"ELEMENT_SET_NO":999,"REV_AT_EPOCH":29689,"BSTAR":0.0017393,"MEAN_MOTION_DOT":0.00171418,"MEAN_MOTION_DDOT":0},{"OBJECT_NAME":"STARLINK-1260","OBJECT_ID":"2020-019AW","EPOCH":"2025-07-31T20:21:14.278752","MEAN_MOTION":15.0638596,"ECCENTRICITY":0.0001347,"INCLINATION":53.0562,"RA_OF_ASC_NODE":48.0209,"ARG_OF_PERICENTER":98.8125,"MEAN_ANOMALY":261.3017,"EPHEMERIS_TYPE":0,"CLASSIFICATION_TYPE":"U","NORAD_CAT_ID":45404,"ELEMENT_SET_NO":999,"REV_AT_EPOCH":29657,"BSTAR":-5.7914e-5,"MEAN_MOTION_DOT":-1.144e-5,"MEAN_MOTION_DDOT":0},{"OBJECT_NAME":"STARLINK-1263","OBJECT_ID":"2020-019AX","EPOCH":"2025-07-31T19:59:59.999712","MEAN_MOTION":15.06387987,"ECCENTRICITY":0.0001328,"INCLINATION":53.0559,"RA_OF_ASC_NODE":48.078,"ARG_OF_PERICENTER":85.4614,"MEAN_ANOMALY":274.6527,"EPHEMERIS_TYPE":0,"CLASSIFICATION_TYPE":"U","NORAD_CAT_ID":45405,"ELEMENT_SET_NO":999,"REV_AT_EPOCH":29657,"BSTAR":1.1791e-5,"MEAN_MOTION_DOT":-1.06e-6,"MEAN_MOTION_DDOT":0},{"OBJECT_NAME":"STARLINK-1265","OBJECT_ID":"2020-019AY","EPOCH":"2025-08-01T13:41:32.370720","MEAN_MOTION":15.06398779,"ECCENTRICITY":0.0001467,"INCLINATION":53.0571,"RA_OF_ASC_NODE":44.7748,"ARG_OF_PERICENTER":102.9849,"MEAN_ANOMALY":257.1304,"EPHEMERIS_TYPE":0,"CLASSIFICATION_TYPE":"U","NORAD_CAT_ID":45406,"ELEMENT_SET_NO":999,"REV_AT_EPOCH":29668,"BSTAR":1.1187e-5,"MEAN_MOTION_DOT":-1.15e-6,"MEAN_MOTION_DDOT":0},{"OBJECT_NAME":"STARLINK-1278","OBJECT_ID":"2020-019BA","EPOCH":"2025-07-31T22:24:38.535840","MEAN_MOTION":15.06392785,"ECCENTRICITY":0.0001337,"INCLINATION":53.055,"RA_OF_ASC_NODE":77.6323,"ARG_OF_PERICENTER":86.0593,"MEAN_ANOMALY":274.0548,"EPHEMERIS_TYPE":0,"CLASSIFICATION_TYPE":"U","NORAD_CAT_ID":45408,"ELEMENT_SET_NO":999,"REV_AT_EPOCH":29617,"BSTAR":6.6707e-5,"MEAN_MOTION_DOT":7.12e-6,"MEAN_MOTION_DDOT":0},{"OBJECT_NAME":"STARLINK-1296","OBJECT_ID":"2020-019BE","EPOCH":"2025-07-31T21:51:27.297504","MEAN_MOTION":15.06392804,"ECCENTRICITY":0.0001322,"INCLINATION":53.0553,"RA_OF_ASC_NODE":47.7348,"ARG_OF_PERICENTER":93.1729,"MEAN_ANOMALY":266.9411,"EPHEMERIS_TYPE":0,"CLASSIFICATION_TYPE":"U","NORAD_CAT_ID":45412,"ELEMENT_SET_NO":999,"REV_AT_EPOCH":29658,"BSTAR":-9.2331e-5,"MEAN_MOTION_DOT":-1.656e-5,"MEAN_MOTION_DDOT":0},{"OBJECT_NAME":"STARLINK-1298","OBJECT_ID":"2020-019BF","EPOCH":"2025-08-01T14:00:01.999872","MEAN_MOTION":15.31283558,"ECCENTRICITY":0.0001296,"INCLINATION":53.0536,"RA_OF_ASC_NODE":43.7298,"ARG_OF_PERICENTER":68.7929,"MEAN_ANOMALY":327.625,"EPHEMERIS_TYPE":0,"CLASSIFICATION_TYPE":"U","NORAD_CAT_ID":45413,"ELEMENT_SET_NO":999,"REV_AT_EPOCH":29679,"BSTAR":0.033719,"MEAN_MOTION_DOT":0.01117056,"MEAN_MOTION_DDOT":0},{"OBJECT_NAME":"STARLINK-1309","OBJECT_ID":"2020-019BG","EPOCH":"2025-08-01T12:32:32.576928","MEAN_MOTION":15.0640085,"ECCENTRICITY":0.0001404,"INCLINATION":53.0559,"RA_OF_ASC_NODE":44.9869,"ARG_OF_PERICENTER":88.1102,"MEAN_ANOMALY":272.0048,"EPHEMERIS_TYPE":0,"CLASSIFICATION_TYPE":"U","NORAD_CAT_ID":45414,"ELEMENT_SET_NO":999,"REV_AT_EPOCH":29668,"BSTAR":5.5305e-5,"MEAN_MOTION_DOT":5.42e-6,"MEAN_MOTION_DDOT":0},{"OBJECT_NAME":"STARLINK-1316","OBJECT_ID":"2020-019BH","EPOCH":"2025-07-31T19:38:46.081824","MEAN_MOTION":15.06390956,"ECCENTRICITY":0.000139,"INCLINATION":53.0545,"RA_OF_ASC_NODE":48.1462,"ARG_OF_PERICENTER":82.3478,"MEAN_ANOMALY":277.7669,"EPHEMERIS_TYPE":0,"CLASSIFICATION_TYPE":"U","NORAD_CAT_ID":45415,"ELEMENT_SET_NO":999,"REV_AT_EPOCH":29659,"BSTAR":9.6832e-5,"MEAN_MOTION_DOT":1.161e-5,"MEAN_MOTION_DDOT":0},{"OBJECT_NAME":"STARLINK-1318","OBJECT_ID":"2020-019BJ","EPOCH":"2025-08-01T14:00:01.999872","MEAN_MOTION":15.31565876,"ECCENTRICITY":0.0001516,"INCLINATION":53.0539,"RA_OF_ASC_NODE":41.6513,"ARG_OF_PERICENTER":81.5848,"MEAN_ANOMALY":64.5205,"EPHEMERIS_TYPE":0,"CLASSIFICATION_TYPE":"U","NORAD_CAT_ID":45416,"ELEMENT_SET_NO":999,"REV_AT_EPOCH":29673,"BSTAR":0.0031587,"MEAN_MOTION_DOT":0.00098549,"MEAN_MOTION_DDOT":0},{"OBJECT_NAME":"STARLINK-1286","OBJECT_ID":"2020-019BK","EPOCH":"2025-07-31T20:33:10.187424","MEAN_MOTION":15.06402974,"ECCENTRICITY":0.000183,"INCLINATION":53.0554,"RA_OF_ASC_NODE":77.9804,"ARG_OF_PERICENTER":122.8225,"MEAN_ANOMALY":237.294,"EPHEMERIS_TYPE":0,"CLASSIFICATION_TYPE":"U","NORAD_CAT_ID":45417,"ELEMENT_SET_NO":999,"REV_AT_EPOCH":29643,"BSTAR":-1.5232e-5,"MEAN_MOTION_DOT":-5.09e-6,"MEAN_MOTION_DDOT":0},{"OBJECT_NAME":"STARLINK-1308","OBJECT_ID":"2020-019BM","EPOCH":"2025-07-31T20:27:51.374880","MEAN_MOTION":15.06398008,"ECCENTRICITY":0.0001281,"INCLINATION":53.0554,"RA_OF_ASC_NODE":77.9931,"ARG_OF_PERICENTER":100.0531,"MEAN_ANOMALY":260.0602,"EPHEMERIS_TYPE":0,"CLASSIFICATION_TYPE":"U","NORAD_CAT_ID":45419,"ELEMENT_SET_NO":999,"REV_AT_EPOCH":29618,"BSTAR":5.9817e-6,"MEAN_MOTION_DOT":-1.92e-6,"MEAN_MOTION_DDOT":0},{"OBJECT_NAME":"STARLINK-1329","OBJECT_ID":"2020-025A","EPOCH":"2025-07-31T16:31:40.133280","MEAN_MOTION":15.06398497,"ECCENTRICITY":0.000133,"INCLINATION":53.0556,"RA_OF_ASC_NODE":18.7288,"ARG_OF_PERICENTER":90.5011,"MEAN_ANOMALY":269.613,"EPHEMERIS_TYPE":0,"CLASSIFICATION_TYPE":"U","NORAD_CAT_ID":45531,"ELEMENT_SET_NO":999,"REV_AT_EPOCH":29178,"BSTAR":-5.7381e-5,"MEAN_MOTION_DOT":-1.136e-5,"MEAN_MOTION_DDOT":0}]
